{
  "norad_id": 55268,
  "name": "NAVSTAR 82 (USA 343)",
  "history": [
    {
      "epoch": "2026-03-28T04:24:38.672352Z",
      "apogee_km": 20197.92890808398,
      "perigee_km": 20169.345782710898,
      "latitude_deg": -4.3709016611938,
      "longitude_deg": -103.10427775476099,
      "height_km": 20172.01352481426,
      "semi_major_axis_km": 26561.774345397436,
      "eccentricity": 0.00053805,
      "inclination_deg": 55.1104,
      "raan_deg": 151.7031,
      "arg_perigee_deg": 326.6502,
      "mean_anomaly_deg": 28.0595,
      "mean_motion_rev_day": 2.00547447
    }
  ]
}