{"fetched_at":"2026-04-05T12:57:33Z","count":17389,"tles":[{"name":"GPS BIII-6  (PRN 28)","line1":"1 55268U 23009A   26087.18378093  .00000000  00000+0  00000+0 0  9990","line2":"2 55268  55.1104 151.7031 0005380 326.6502  28.0595  2.00547447 23616","category":"GPS"}]}